BEIDOU-2 IGSO-1 (C06)   
1 36828U 10036A   26188.62304567 -.00000058  00000+0  00000+0 0  9997
2 36828  54.3062 162.7756 0059224 225.1869 229.2421  1.00266308 58302
BEIDOU-2 G4 (C04)       
1 37210U 10057A   26188.61485138 -.00000100  00000+0  00000+0 0  9997
2 37210   3.6943  68.8236 0005164 185.9337  52.1316  1.00270800 57496
BEIDOU-2 IGSO-2 (C07)   
1 37256U 10068A   26188.66540134 -.00000203  00000+0  00000+0 0  9996
2 37256  47.5102 271.5779 0056836 213.5507 148.3457  1.00276167 57007
BEIDOU-2 IGSO-3 (C08)   
1 37384U 11013A   26187.52460699 -.00000170  00000+0  00000+0 0  9993
2 37384  62.4337  39.9702 0035245 183.2519 357.0849  1.00262965 55850
BEIDOU-2 IGSO-4 (C09)   
1 37763U 11038A   26187.84005391  .00000048  00000+0  00000+0 0  9993
2 37763  54.6039 165.4986 0160070 231.4311 284.4062  1.00281732 54844
BEIDOU-2 IGSO-5 (C10)   
1 37948U 11073A   26183.72937883 -.00000128  00000+0  00000+0 0  9990
2 37948  47.6496 271.3544 0114527 222.0502 141.5350  1.00270596 53296
BEIDOU-2 G5 (C05)       
1 38091U 12008A   26188.58442484  .00000070  00000+0  00000+0 0  9991
2 38091   3.6213  69.5726 0007428 273.1484 211.9491  1.00268732 52578
BEIDOU-2 M3 (C11)       
1 38250U 12018A   26188.59310414 -.00000065  00000+0  00000+0 0  9992
2 38250  55.7391 304.1881 0020667 272.8507  86.9321  1.86230177 96321
BEIDOU-2 M4 (C12)       
1 38251U 12018B   26186.91456642 -.00000061  00000+0  00000+0 0  9997
2 38251  55.6406 303.4567 0011823 273.7127  86.1743  1.86229838 96291
BEIDOU-2 M6 (C14)       
1 38775U 12050B   26188.23508586 -.00000043  00000+0  00000+0 0  9996
2 38775  56.5614  62.2316 0013130   0.5124 359.5520  1.86230940 93687
BEIDOU-2 G6 (C02)       
1 38953U 12059A   26188.58939976 -.00000162  00000+0  00000+0 0  9994
2 38953   4.4698  73.3075 0009084 330.2599 178.1470  1.00268990 50118
BEIDOU-3S IGSO-1S (C31) 
1 40549U 15019A   26183.80025122 -.00000190  00000+0  00000+0 0  9997
2 40549  49.1798 295.2769 0076860 219.1125 144.2493  1.00680073 41232
BEIDOU-3S M2S (C58)     
1 40748U 15037A   26188.19050975 -.00000063  00000+0  00000+0 0  9998
2 40748  54.8517 301.3582 0009202 257.5406 102.3800  1.86232412 74496
BEIDOU-3S M1S (C57)     
1 40749U 15037B   26188.39547168 -.00000063  00000+0  00000+0 0  9996
2 40749  54.8483 301.3380 0002930  63.4296 296.6235  1.86254849 74506
BEIDOU-3S IGSO-2S (C56) 
1 40938U 15053A   26187.66468093 -.00000111  00000+0  00000+0 0  9996
2 40938  49.1915 258.5511 0065881 192.9035 166.4706  1.00255328 39546
BEIDOU-2 IGSO-6 (C13)   
1 41434U 16021A   26177.11016981 -.00000145  00000+0  00000+0 0  9995
2 41434  60.2385  37.9495 0057558 231.0163 137.2672  1.00258926 37578
BEIDOU-2 G7 (C03)       
1 41586U 16037A   26188.59468644 -.00000338  00000+0  00000+0 0  9995
2 41586   1.7673  69.4614 0006442   6.0626 174.5905  1.00266347  7092
BEIDOU-3 M1 (C19)       
1 43001U 17069A   26188.00042395 -.00000042  00000+0  00000+0 0  9994
2 43001  56.7085  62.4329 0009514 327.3765  32.6283  1.86231364 58976
BEIDOU-3 M2 (C20)       
1 43002U 17069B   26187.93921887 -.00000042  00000+0  00000+0 0  9998
2 43002  56.7078  62.4704 0008592 355.0487   5.0065  1.86231060 58964
BEIDOU-3 M7 (C27)       
1 43107U 18003A   26186.60720015 -.00000060  00000+0  00000+0 0  9996
2 43107  54.3105 301.6730 0004481  97.3589 262.7166  1.86228486 57695
BEIDOU-3 M8 (C28)       
1 43108U 18003B   26188.16254439 -.00000063  00000+0  00000+0 0  9995
2 43108  54.3015 301.6004 0002979 257.8270 102.1630  1.86231031 57738
BEIDOU-3 M4 (C22)       
1 43207U 18018A   26188.06871672 -.00000042  00000+0  00000+0 0  9991
2 43207  56.6676  62.4940 0007428  26.7445 333.3571  1.86231345 57110
BEIDOU-3 M3 (C21)       
1 43208U 18018B   26187.59825105 -.00000041  00000+0  00000+0 0  9998
2 43208  56.6666  62.5134 0007880 344.5989  15.4415  1.86231254 57105
BEIDOU-3 M9 (C29)       
1 43245U 18029A   26187.27923635 -.00000059  00000+0  00000+0 0  9992
2 43245  54.1753 299.2817 0001031 180.8160 179.2113  1.86228489 56252
BEIDOU-3 M10 (C30)      
1 43246U 18029B   26188.28740515 -.00000061  00000+0  00000+0 0  9992
2 43246  54.1719 299.2724 0003315  35.7721 324.2760  1.86229562 56253
BEIDOU-2 IGSO-7 (C16)   
1 43539U 18057A   26182.89122331 -.00000033  00000+0  00000+0 0  9998
2 43539  55.1981 162.9292 0104946 237.8611 308.6338  1.00246939 29273
BEIDOU-3 M5 (C23)       
1 43581U 18062A   26187.43745046  .00000113  00000+0  00000+0 0  9998
2 43581  54.0864 181.6496 0005706 290.6988  69.2445  1.86228869 53991
BEIDOU-3 M6 (C24)       
1 43582U 18062B   26188.37493262  .00000119  00000+0  00000+0 0  9999
2 43582  54.0860 181.6071 0005088   9.1977 350.8186  1.86227975 54013
BEIDOU-3 M12 (C26)      
1 43602U 18067A   26188.31336181  .00000118  00000+0  00000+0 0  9996
2 43602  54.1816 180.3577 0007892  30.1437 329.9066  1.86227828 53497
BEIDOU-3 M11 (C25)      
1 43603U 18067B   26188.44848271  .00000119  00000+0  00000+0 0  9990
2 43603  54.1790 180.3167 0004618  13.4684 346.5491  1.86227306 53527
BEIDOU-3 M13 (C32)      
1 43622U 18072A   26187.86626377 -.00000042  00000+0  00000+0 0  9999
2 43622  56.6412  62.0108 0006453 332.0878  27.9414  1.86231573 53022
BEIDOU-3 M14 (C33)      
1 43623U 18072B   26187.19473722 -.00000040  00000+0  00000+0 0  9998
2 43623  56.6428  62.0271 0005602   6.4444 353.6283  1.86231621 53002
BEIDOU-3 M16 (C35)      
1 43647U 18078A   26188.42370037 -.00000062  00000+0  00000+0 0  9996
2 43647  54.0702 299.2766 0006751  40.2464 319.8292  1.86232245 52536
BEIDOU-3 M15 (C34)      
1 43648U 18078B   26187.47907947 -.00000060  00000+0  00000+0 0  9995
2 43648  54.0667 299.3099 0003770  58.5392 301.5247  1.86232415 52534
BEIDOU-3 G1 (C59)       
1 43683U 18085A   26188.61492804 -.00000095  00000+0  00000+0 0  9998
2 43683   2.9170  96.8357 0008442 354.4192 215.6296  1.00273524 28262
BEIDOU-3 M17 (C36)      
1 43706U 18093A   26188.39538441  .00000119  00000+0  00000+0 0  9992
2 43706  54.1700 181.6109 0010157 293.2280 212.5865  1.86228313 51914
BEIDOU-3 M18 (C37)      
1 43707U 18093B   26188.04136145  .00000117  00000+0  00000+0 0  9998
2 43707  54.1709 181.6150 0008066 321.5361  38.4125  1.86226750 51907
BEIDOU-3 IGSO-1 (C38)   
1 44204U 19023A   26188.39613446 -.00000208  00000+0  00000+0 0  9999
2 44204  58.7230  37.4430 0025584 223.9763 285.4775  1.00285689  7417
BEIDOU-2 G8 (C01)       
1 44231U 19027A   26188.60216686 -.00000233  00000+0  00000+0 0  9990
2 44231   1.7066  74.5171 0009936 284.8030 287.5150  1.00274803 26284
BEIDOU-3 IGSO-2 (C39)   
1 44337U 19035A   26188.31136924 -.00000073  00000+0  00000+0 0  9992
2 44337  55.2503 158.6862 0039645 216.4337 141.1936  1.00260336 25869
BEIDOU-3 M24 (C46)      
1 44542U 19061A   26188.10973604  .00000118  00000+0  00000+0 0  9999
2 44542  54.3974 182.0558 0008559 359.0276   0.9778  1.86229376 46163
BEIDOU-3 M23 (C45)      
1 44543U 19061B   26188.40781488  .00000120  00000+0  00000+0 0  9993
2 44543  54.3961 182.0144 0005854 339.2878 132.0314  1.86227446 46174
BEIDOU-3 M22 (C44)      
1 44793U 19078A   26186.33900275 -.00000058  00000+0  00000+0 0  9996
2 44793  53.9186 299.1896 0005914  49.8831 310.1966  1.86227646 44980
BEIDOU-3 M21 (C43)      
1 44794U 19078B   26186.47887781 -.00000058  00000+0  00000+0 0  9998
2 44794  53.8912 299.1453 0003864  48.4464 311.6147  1.86228113 44993
BEIDOU-3 M19 (C41)      
1 44864U 19090A   26188.06161581 -.00000043  00000+0  00000+0 0  9994
2 44864  56.5756  62.1346 0017090 297.4421 241.2360  1.86231712 44603
BEIDOU-3 M20 (C42)      
1 44865U 19090B   26187.92858764 -.00000042  00000+0  00000+0 0  9994
2 44865  56.5768  62.1737 0014942 312.1641 226.9103  1.86231636 44580
BEIDOU-3 G2 (C60)       
1 45344U 20017A   26188.58861976 -.00000127  00000+0  00000+0 0  9994
2 45344   2.9029  47.6220 0002385  53.2186 116.6945  1.00270620 23463
BEIDOU-3 G3 (C61)       
1 45807U 20040A   26188.59819168 -.00000340  00000+0  00000+0 0  9998
2 45807   2.4942  67.4780 0002085 333.7575 210.2102  1.00268537 22270
BEIDOU-3 G4 (C62)       
1 56564U 23066A   26187.31732966 -.00000268  00000+0  00000+0 0  9999
2 56564   0.4680 336.2679 0005056 178.9368  23.3032  1.00266978 11587
BEIDOU-3 M28 (C50)      
1 58654U 23207A   26186.01893255 -.00000039  00000+0  00000+0 0  9999
2 58654  55.7683  61.7016 0002708 358.6416   1.4251  1.86229759 17173
BEIDOU-3 M26 (C48)      
1 58655U 23207B   26187.96425191 -.00000044  00000+0  00000+0 0  9991
2 58655  55.7724  61.6226 0002296 323.9570  36.0904  1.86229712 17190
BEIDOU-3 M25 (C47)      
1 61186U 24168B   26188.36676912 -.00000064  00000+0  00000+0 0  9997
2 61186  54.4544 301.5420 0003280 293.0034  94.3413  1.86230030 12166
BEIDOU-3 M27 (C49)      
1 61187U 24168C   26187.57446904 -.00000062  00000+0  00000+0 0  9994
2 61187  54.4506 301.5523 0001068  47.5868 303.5952  1.86230146  9615
